SPACEMOBILE-003         
1 61045U 24163A   26197.19917605  .00000954  00000+0  57482-4 0  9992
2 61045  52.9668 176.0266 0004706 196.8318 163.2521 15.20707297102187
SPACEMOBILE-005         
1 61046U 24163B   26197.18261250  .00002163  00000+0  11173-3 0  9990
2 61046  52.9763 176.0529 0008666 198.6059 161.4620 15.20721538102170
SPACEMOBILE-001         
1 61047U 24163C   26197.18094367  .00000083  00000+0  18421-4 0  9997
2 61047  52.9729 175.7702 0007140 196.5814 163.4948 15.20742034102173
SPACEMOBILE-002         
1 61048U 24163D   26197.23050697 -.00000792  00000+0 -20798-4 0  9991
2 61048  52.9781 175.5821 0005877 195.8282 164.2529 15.20777977102187
SPACEMOBILE-004         
1 61049U 24163E   26196.62160951  .00012160  00000+0  55841-3 0  9995
2 61049  52.9675 178.1586 0006579 225.4338 134.6120 15.20780797102091
SPACEMOBILE-001 DEB     
1 62369U 24163F   26197.22058238  .00004103  00000+0  12850-3 0  9993
2 62369  52.9936 142.7051 0005693 257.2077 102.8288 15.35397157 90964
SPACEMOBILE-002 DEB     
1 62370U 24163G   26197.19202460  .00010884  00000+0  24503-3 0  9990
2 62370  52.9425 126.8961 0004634 290.5468  69.5039 15.43845634102841
SPACEMOBILE-003 DEB     
1 62371U 24163H   26197.22737443  .00011845  00000+0  28647-3 0  9990
2 62371  52.9704 133.6498 0005468 240.6862 119.3596 15.41590595 96365
SPACEMOBILE-004 DEB     
1 62372U 24163J   26197.24650212  .00008082  00000+0  20397-3 0  9994
2 62372  52.9844 133.2209 0002736 269.2276  90.8413 15.40780590 99435
SPACEMOBILE-005 DEB     
1 62373U 24163K   26197.24331732  .00004384  00000+0  13966-3 0  9993
2 62373  52.9745 147.5008 0005444 234.0464 126.0032 15.34669668102584
SPACEMOBILE-006         
1 67232U 25309A   26197.26383964  .00000871  00000+0  56828-4 0  9993
2 67232  52.9937 198.4390 0009975 218.8660 141.1617 15.18656148 31013
SPACEMOBILE-008         
1 69589U 26139A   26197.20988309  .00000129  00000+0  24228-4 0  9995
2 69589  52.9949 130.8006 0005108  58.8976 301.2516 15.12802700  4370
SPACEMOBILE-009         
1 69590U 26139B   26197.07977669  .00000164  00000+0  26252-4 0  9997
2 69590  52.9940 131.4074 0005333  54.4529 305.6959 15.12696048  4354
SPACEMOBILE-010         
1 69591U 26139C   26197.21514214  .00000374  00000+0  38279-4 0  9992
2 69591  52.9946 130.8307 0005289  46.7134 313.4298 15.12529173  4389
